NORAD_CAT_ID,OBJECT_NAME,OBJECT_TYPE,EPOCH,MEAN_MOTION,ECCENTRICITY,INCLINATION,RA_OF_ASC_NODE,ARG_OF_PERICENTER,MEAN_ANOMALY,BSTAR,MEAN_MOTION_DOT,MEAN_MOTION_DDOT,TLE_LINE0,TLE_LINE1,TLE_LINE2,SEMIMAJOR_AXIS,PERIOD,APOGEE,PERIGEE,DECAYED
56480.0,STARLINK-6214,PAYLOAD,2023-05-16 16:00:00,15.90651197,0.0024971,69.9998,229.0571,159.5456,312.3357,-0.0029437,-0.00938191,0.00026497,0 STARLINK-6214,1 56480U 23064AJ  23136.66667824 -.00938191  26497-3 -29437-2 0  9999,2 56480  69.9998 229.0571 0024971 159.5456 312.3357 15.90651197  1301,6678.596,90.529,317.139,283.784,0.0
56480.0,STARLINK-6214,PAYLOAD,2023-05-16 22:00:00,15.90178041,0.0022805,69.9995,228.3328,159.8829,302.9411,-0.0031795,-0.00984064,0.0002881,0 STARLINK-6214,1 56480U 23064AJ  23136.91667824 -.00984064  28810-3 -31795-2 0  9998,2 56480  69.9995 228.3328 0022805 159.8829 302.9411 15.90178041  1332,6679.921,90.556,317.02,286.553,0.0
56480.0,STARLINK-6214,PAYLOAD,2023-05-17 22:00:00,15.88227986,0.0013553,69.9992,225.44,164.1737,258.0335,-0.00361,-0.00997746,0.00029001,0 STARLINK-6214,1 56480U 23064AJ  23137.91667824 -.00997746  29001-3 -36100-2 0  9998,2 56480  69.9992 225.4400 0013553 164.1737 258.0335 15.88227986  1498,6685.388,90.667,316.314,298.192,0.0
56480.0,STARLINK-6214,PAYLOAD,2023-05-18 14:00:01,15.8691512,0.0007831,69.9989,223.5163,173.2557,97.9652,-0.0037647,-0.00883645,0.0,0 STARLINK-6214,1 56480U 23064AJ  23138.58334491 -.00883645  00000-0 -37647-2 0  9997,2 56480  69.9989 223.5163 0007831 173.2557  97.9652 15.86915120  1306,6689.075,90.742,316.178,305.701,0.0
56480.0,STARLINK-6214,PAYLOAD,2023-05-18 22:00:00,15.86277899,0.0005282,69.9989,222.5557,187.3568,187.1931,-0.0040553,-0.00916916,0.0,0 STARLINK-6214,1 56480U 23064AJ  23138.91667824 -.00916916  00000-0 -40553-2 0  9991,2 56480  69.9989 222.5557 0005282 187.3568 187.1931 15.86277899  1652,6690.866,90.779,316.265,309.197,0.0
56480.0,STARLINK-6214,PAYLOAD,2023-05-19 22:00:01,15.84325055,0.0003417,69.9994,219.6805,263.3674,56.5544,-0.0044504,-0.00914392,0.0,0 STARLINK-6214,1 56480U 23064AJ  23139.91668981 -.00914392  00000-0 -44504-2 0  9993,2 56480  69.9994 219.6805 0003417 263.3674  56.5544 15.84325055  1815,6696.363,90.89,320.516,315.94,0.0
56480.0,STARLINK-6214,PAYLOAD,2023-05-20 08:46:48,15.83603616,0.0003733,69.9991,218.3899,276.6975,83.3803,-0.00091127,-0.00196302,0.0,0 STARLINK-6214,1 56480U 23064AJ  23140.36584145 -.00196302  00000-0 -91127-3 0  9990,2 56480  69.9991 218.3899 0003733 276.6975  83.3803 15.83603616  1887,6698.397,90.932,322.762,317.761,0.0
56480.0,STARLINK-6214,PAYLOAD,2023-05-21 06:00:00,15.81749218,0.0003894,69.9985,215.8579,267.631,88.3291,-0.0053155,-0.00961706,0.0,0 STARLINK-6214,1 56480U 23064AJ  23141.25001157 -.00961706  00000-0 -53155-2 0  9992,2 56480  69.9985 215.8579 0003894 267.6310  88.3291 15.81749218  2028,6703.631,91.038,328.106,322.885,0.0
56480.0,STARLINK-6214,PAYLOAD,2023-05-21 14:00:01,15.81035066,0.0003679,69.9981,214.904,277.1356,175.9179,-0.0048465,-0.00858371,0.0,0 STARLINK-6214,1 56480U 23064AJ  23141.58334491 -.00858371  00000-0 -48465-2 0  9999,2 56480  69.9981 214.9040 0003679 277.1356 175.9179 15.81035066  1301,6705.649,91.08,329.981,325.047,0.0
56480.0,STARLINK-6214,PAYLOAD,2023-05-21 22:00:00,15.80392145,0.0003517,69.9977,213.9515,274.1435,275.2035,-0.0052081,-0.00891837,0.0,0 STARLINK-6214,1 56480U 23064AJ  23141.91667824 -.00891837  00000-0 -52081-2 0  9998,2 56480  69.9977 213.9515 0003517 274.1435 275.2035 15.80392145  2138,6707.468,91.117,331.692,326.974,0.0
56480.0,STARLINK-6214,PAYLOAD,2023-05-22 14:00:01,15.79083753,0.0003491,69.9981,212.0494,276.8621,102.7181,-0.0053807,-0.00870041,0.0,0 STARLINK-6214,1 56480U 23064AJ  23142.58334491 -.00870041  00000-0 -53807-2 0  9994,2 56480  69.9981 212.0494 0003491 276.8621 102.7181 15.79083753  2233,6711.172,91.192,335.38,330.695,0.0
56480.0,STARLINK-6214,PAYLOAD,2023-05-22 22:00:00,15.78425891,0.0003359,69.9978,211.0998,272.3743,201.1568,-0.0055521,-0.00871199,0.0,0 STARLINK-6214,1 56480U 23064AJ  23142.91667824 -.00871199  00000-0 -55521-2 0  9990,2 56480  69.9978 211.0998 0003359 272.3743 201.1568 15.78425891  1308,6713.037,91.23,337.157,332.647,0.0
56480.0,STARLINK-6214,PAYLOAD,2023-05-23 06:00:00,15.77830751,0.000335,69.998,210.1516,268.4515,298.2236,-0.0063074,-0.00954065,0.0,0 STARLINK-6214,1 56480U 23064AJ  23143.25001157 -.00954065  00000-0 -63074-2 0  9995,2 56480  69.9980 210.1516 0003350 268.4515 298.2236 15.77830751  2349,6714.725,91.265,338.839,334.341,0.0
56480.0,STARLINK-6214,PAYLOAD,2023-05-23 22:00:00,15.76458752,0.0003482,69.9971,208.2567,270.0358,120.6399,-0.0059265,-0.00853435,0.0,0 STARLINK-6214,1 56480U 23064AJ  23143.91667824 -.00853435  00000-0 -59265-2 0  9993,2 56480  69.9971 208.2567 0003482 270.0358 120.6399 15.76458752  2448,6718.62,91.344,342.825,338.146,0.0
56480.0,STARLINK-6214,PAYLOAD,2023-05-24 14:00:01,15.75172387,0.0003384,69.9973,206.3656,274.5097,297.0743,-0.0064426,-0.00874404,0.0,0 STARLINK-6214,1 56480U 23064AJ  23144.58335648 -.00874404  00000-0 -64426-2 0  9997,2 56480  69.9973 206.3656 0003384 274.5097 297.0743 15.75172387  2558,6722.278,91.419,346.417,341.868,0.0
56480.0,STARLINK-6214,PAYLOAD,2023-05-24 22:00:00,15.74508023,0.0003585,69.9973,205.4215,268.9016,31.8733,-0.0065261,-0.00861805,0.0,0 STARLINK-6214,1 56480U 23064AJ  23144.91667824 -.00861805  00000-0 -65261-2 0  9997,2 56480  69.9973 205.4215 0003585 268.9016  31.8733 15.74508023  1304,6724.169,91.457,348.444,343.623,0.0
56480.0,STARLINK-6214,PAYLOAD,2023-05-25 04:00:01,15.74072256,0.000371,69.9976,204.7142,266.5463,10.6969,-0.0072489,-0.00931509,0.0,0 STARLINK-6214,1 56480U 23064AJ  23145.16668981 -.00931509  00000-0 -72489-2 0  9999,2 56480  69.9976 204.7142 0003710 266.5463  10.6969 15.74072256  2646,6725.409,91.482,349.77,344.779,0.0
56480.0,STARLINK-6214,PAYLOAD,2023-05-25 14:00:01,15.73202477,0.0003741,69.9976,203.5361,276.2982,200.632,-0.0068426,-0.00854776,0.0,0 STARLINK-6214,1 56480U 23064AJ  23145.58334491 -.00854776  00000-0 -68426-2 0  9997,2 56480  69.9976 203.5361 0003741 276.2982 200.6320 15.73202477  1307,6727.888,91.533,352.27,347.236,0.0
56480.0,STARLINK-6214,PAYLOAD,2023-05-25 22:00:00,15.72551692,0.0003618,69.9974,202.5946,269.4127,294.4217,-0.0071116,-0.00863023,0.0,0 STARLINK-6214,1 56480U 23064AJ  23145.91667824 -.00863023  00000-0 -71116-2 0  9998,2 56480  69.9974 202.5946 0003618 269.4127 294.4217 15.72551692  1302,6729.744,91.571,354.044,349.174,0.0
56480.0,STARLINK-6214,PAYLOAD,2023-05-26 06:00:00,15.71955069,0.0003752,69.9975,201.6542,267.2031,22.7373,-0.0081221,-0.00965846,0.0,0 STARLINK-6214,1 56480U 23064AJ  23146.25001157 -.00965846  00000-0 -81221-2 0  9991,2 56480  69.9975 201.6542 0003752 267.2031  22.7373 15.71955069  2811,6731.447,91.606,355.838,350.786,0.0
56480.0,STARLINK-6214,PAYLOAD,2023-05-26 14:00:01,15.71260883,0.0003727,69.9972,200.7146,275.2786,100.0093,-0.0075881,-0.00870914,0.0,0 STARLINK-6214,1 56480U 23064AJ  23146.58334491 -.00870914  00000-0 -75881-2 0  9993,2 56480  69.9972 200.7146 0003727 275.2786 100.0093 15.71260883  1301,6733.429,91.646,357.804,352.785,0.0
56480.0,STARLINK-6214,PAYLOAD,2023-05-26 22:00:01,15.71910094,0.0003954,69.9974,199.774,269.7939,191.628,0.00064687,0.0008515,0.0,0 STARLINK-6214,1 56480U 23064AJ  23146.91668981  .00085150  00000-0  64687-3 0  9995,2 56480  69.9974 199.7740 0003954 269.7939 191.6280 15.71910094  2929,6731.575,91.608,356.102,350.779,0.0
56480.0,STARLINK-6214,PAYLOAD,2023-05-27 06:00:02,15.69964554,0.000355,69.9986,198.8381,270.6772,273.005,-0.00069453,-0.00083047,0.0,0 STARLINK-6214,1 56480U 23064AJ  23147.25002315 -.00083047  00000-0 -69453-3 0  9997,2 56480  69.9986 198.8381 0003550 270.6772 273.0050 15.69964554  2973,6737.135,91.722,361.392,356.609,0.0
56480.0,STARLINK-6214,PAYLOAD,2023-05-27 22:00:00,15.69879774,0.0003466,69.9989,196.9636,270.3363,79.9737,0.0005478,0.00066056,0.0,0 STARLINK-6214,1 56480U 23064AJ  23147.91667824  .00066056  00000-0  54780-3 0  9998,2 56480  69.9989 196.9636 0003466 270.3363  79.9737 15.69879774  3073,6737.378,91.727,361.578,356.908,0.0
56480.0,STARLINK-6214,PAYLOAD,2023-05-28 06:00:00,15.69977118,0.0003567,69.9989,196.0266,272.0392,161.5699,-0.00090233,-0.00107575,0.0,0 STARLINK-6214,1 56480U 23064AJ  23148.25001157 -.00107575  00000-0 -90233-3 0  9994,2 56480  69.9989 196.0266 0003567 272.0392 161.5699 15.69977118  1306,6737.099,91.721,361.368,356.561,0.0
56480.0,STARLINK-6214,PAYLOAD,2023-05-28 14:00:01,15.69909751,0.0003537,69.9988,195.0893,277.5778,239.3983,0.00027643,0.00033138,0.0,0 STARLINK-6214,1 56480U 23064AJ  23148.58334491  .00033138  00000-0  27643-3 0  9996,2 56480  69.9988 195.0893 0003537 277.5778 239.3983 15.69909751  3181,6737.292,91.725,361.54,356.774,0.0
56480.0,STARLINK-6214,PAYLOAD,2023-05-28 22:00:00,15.69878945,0.0003505,69.9991,194.152,271.7271,328.6034,0.00043156,0.00051904,0.0,0 STARLINK-6214,1 56480U 23064AJ  23148.91667824  .00051904  00000-0  43156-3 0  9990,2 56480  69.9991 194.1520 0003505 271.7271 328.6034 15.69878945  1302,6737.38,91.727,361.607,356.884,0.0
56480.0,STARLINK-6214,PAYLOAD,2023-05-29 04:37:33,15.69926042,0.0003597,69.9986,193.376,273.9333,86.1451,6.98e-05,8.189e-05,0.0,0 STARLINK-6214,1 56480U 23064AJ  23149.19274475  .00008189  00000-0  69800-4 0  9999,2 56480  69.9986 193.3760 0003597 273.9333  86.1451 15.69926042  3276,6737.246,91.724,361.534,356.687,0.0
56480.0,STARLINK-6214,PAYLOAD,2023-05-29 12:16:18,15.69923495,0.0003535,69.9988,192.4801,274.2215,85.8576,0.00011803,0.00014003,0.0,0 STARLINK-6214,1 56480U 23064AJ  23149.51133070  .00014003  00000-0  11803-3 0  9991,2 56480  69.9988 192.4801 0003535 274.2215  85.8576 15.69923495  2978,6737.253,91.724,361.499,356.736,0.0
56480.0,STARLINK-6214,PAYLOAD,2023-05-29 19:55:04,15.69934378,0.0003525,69.9989,191.5849,272.1384,87.9408,0.00011664,0.00013842,0.0,0 STARLINK-6214,1 56480U 23064AJ  23149.82991295  .00013842  00000-0  11664-3 0  9991,2 56480  69.9989 191.5849 0003525 272.1384  87.9408 15.69934378  3020,6737.222,91.724,361.462,356.712,0.0
